{"type": "FeatureCollection", "features": [ {"type": "Feature", "properties": {"norad_id": 32289, "name": "YAOGAN-3", "group": "resource", "lat": 54.02226578340754, "lon": 9.570855729626908, "alt_km": 592.4108164701966, "timestamp": "2025-12-19T22:41:52.035695+00:00", "meta": {"OBJECT_NAME": "YAOGAN-3", "OBJECT_ID": "2007-055A", "EPOCH": "2025-12-19T19:13:44.905152", "MEAN_MOTION": 14.89888035, "ECCENTRICITY": 0.0001187, "INCLINATION": 97.8359, "RA_OF_ASC_NODE": 20.3631, "ARG_OF_PERICENTER": 72.2712, "MEAN_ANOMALY": 287.8635, "EPHEMERIS_TYPE": 0, "CLASSIFICATION_TYPE": "U", "NORAD_CAT_ID": 32289, "ELEMENT_SET_NO": 999, "REV_AT_EPOCH": 97914, "BSTAR": 0.00011139, "MEAN_MOTION_DOT": 1.016e-05, "MEAN_MOTION_DDOT": 0}, "tle": {"line1": "1 32289U 07055A   25353.80121418  .00001016  00000+0  11139-3 0  9999", "line2": "2 32289  97.8359  20.3631 0001187  72.2712 287.8635 14.89888035979143"}}, "geometry": {"type": "Point", "coordinates": [9.570855729626908, 54.02226578340754]}}, {"type": "Feature", "properties": {"norad_id": 32376, "name": "COSMO-SKYMED 2", "group": "resource", "lat": 45.49633296748118, "lon": 3.2622932877811945, "alt_km": 618.0449599382446, "timestamp": "2025-12-19T22:41:52.035706+00:00", "meta": {"OBJECT_NAME": "COSMO-SKYMED 2", "OBJECT_ID": "2007-059A", "EPOCH": "2025-12-19T18:51:19.609632", "MEAN_MOTION": 14.82150622, "ECCENTRICITY": 0.0001355, "INCLINATION": 97.8803, "RA_OF_ASC_NODE": 175.0033, "ARG_OF_PERICENTER": 82.8736, "MEAN_ANOMALY": 277.2631, "EPHEMERIS_TYPE": 0, "CLASSIFICATION_TYPE": "U", "NORAD_CAT_ID": 32376, "ELEMENT_SET_NO": 999, "REV_AT_EPOCH": 97542, "BSTAR": 5.2403e-05, "MEAN_MOTION_DOT": 3.65e-06, "MEAN_MOTION_DDOT": 0}, "tle": {"line1": "1 32376U 07059A   25353.78564363  .00000365  00000+0  52403-4 0  9993", "line2": "2 32376  97.8803 175.0033 0001355  82.8736 277.2631 14.82150622975421"}}, "geometry": {"type": "Point", "coordinates": [3.2622932877811945, 45.49633296748118]}}, {"type": "Feature", "properties": {"norad_id": 32382, "name": "RADARSAT-2", "group": "resource", "lat": 8.091763702408851, "lon": 179.66115811251592, "alt_km": 793.5701563541297, "timestamp": "2025-12-19T22:41:52.035717+00:00", "meta": {"OBJECT_NAME": "RADARSAT-2", "OBJECT_ID": "2007-061A", "EPOCH": "2025-12-19T18:32:20.125824", "MEAN_MOTION": 14.29983658, "ECCENTRICITY": 0.0001117, "INCLINATION": 98.5791, "RA_OF_ASC_NODE": 358.2606, "ARG_OF_PERICENTER": 84.6089, "MEAN_ANOMALY": 275.5221, "EPHEMERIS_TYPE": 0, "CLASSIFICATION_TYPE": "U", "NORAD_CAT_ID": 32382, "ELEMENT_SET_NO": 999, "REV_AT_EPOCH": 94031, "BSTAR": 4.7805e-05, "MEAN_MOTION_DOT": 8e-07, "MEAN_MOTION_DDOT": 0}, "tle": {"line1": "1 32382U 07061A   25353.77245516  .00000080  00000+0  47805-4 0  9992", "line2": "2 32382  98.5791 358.2606 0001117  84.6089 275.5221 14.29983658940310"}}, "geometry": {"type": "Point", "coordinates": [179.66115811251592, 8.091763702408851]}}, {"type": "Feature", "properties": {"norad_id": 32783, "name": "CARTOSAT-2A", "group": "resource", "lat": -10.336314605993817, "lon": -137.8866560929922, "alt_km": 643.8265315533608, "timestamp": "2025-12-19T22:41:52.035727+00:00", "meta": {"OBJECT_NAME": "CARTOSAT-2A", "OBJECT_ID": "2008-021A", "EPOCH": "2025-12-19T18:35:30.999840", "MEAN_MOTION": 14.78949815, "ECCENTRICITY": 0.0011296, "INCLINATION": 97.7925, "RA_OF_ASC_NODE": 43.3788, "ARG_OF_PERICENTER": 341.8077, "MEAN_ANOMALY": 18.2729, "EPHEMERIS_TYPE": 0, "CLASSIFICATION_TYPE": "U", "NORAD_CAT_ID": 32783, "ELEMENT_SET_NO": 999, "REV_AT_EPOCH": 95228, "BSTAR": 0.00013182, "MEAN_MOTION_DOT": 9.23e-06, "MEAN_MOTION_DDOT": 0}, "tle": {"line1": "1 32783U 08021A   25353.77466435  .00000923  00000+0  13182-3 0  9995", "line2": "2 32783  97.7925  43.3788 0011296 341.8077  18.2729 14.78949815952287"}}, "geometry": {"type": "Point", "coordinates": [-137.8866560929922, -10.336314605993817]}}, {"type": "Feature", "properties": {"norad_id": 33320, "name": "HUANJING 1A (HJ-1A)", "group": "resource", "lat": 8.463312654417873, "lon": 163.089778041447, "alt_km": 633.3422741294871, "timestamp": "2025-12-19T22:41:52.035738+00:00", "meta": {"OBJECT_NAME": "HUANJING 1A (HJ-1A)", "OBJECT_ID": "2008-041A", "EPOCH": "2025-12-19T18:41:26.213568", "MEAN_MOTION": 14.83413363, "ECCENTRICITY": 0.0019654, "INCLINATION": 97.6535, "RA_OF_ASC_NODE": 341.7833, "ARG_OF_PERICENTER": 12.0503, "MEAN_ANOMALY": 348.1178, "EPHEMERIS_TYPE": 0, "CLASSIFICATION_TYPE": "U", "NORAD_CAT_ID": 33320, "ELEMENT_SET_NO": 999, "REV_AT_EPOCH": 93180, "BSTAR": 9.4393e-05, "MEAN_MOTION_DOT": 7.26e-06, "MEAN_MOTION_DDOT": 0}, "tle": {"line1": "1 33320U 08041A   25353.77877562  .00000726  00000+0  94393-4 0  9997", "line2": "2 33320  97.6535 341.7833 0019654  12.0503 348.1178 14.83413363931802"}}, "geometry": {"type": "Point", "coordinates": [163.089778041447, 8.463312654417873]}}, {"type": "Feature", "properties": {"norad_id": 33321, "name": "HUANJING 1B (HJ-1B)", "group": "resource", "lat": 16.93540297156257, "lon": -16.72088355894989, "alt_km": 599.3387518389081, "timestamp": "2025-12-19T22:41:52.035748+00:00", "meta": {"OBJECT_NAME": "HUANJING 1B (HJ-1B)", "OBJECT_ID": "2008-041B", "EPOCH": "2025-12-19T19:22:56.416224", "MEAN_MOTION": 14.82838657, "ECCENTRICITY": 0.0038024, "INCLINATION": 97.6394, "RA_OF_ASC_NODE": 345.4894, "ARG_OF_PERICENTER": 53.4452, "MEAN_ANOMALY": 307.0252, "EPHEMERIS_TYPE": 0, "CLASSIFICATION_TYPE": "U", "NORAD_CAT_ID": 33321, "ELEMENT_SET_NO": 999, "REV_AT_EPOCH": 93182, "BSTAR": 0.00013557, "MEAN_MOTION_DOT": 1.059e-05, "MEAN_MOTION_DDOT": 0}, "tle": {"line1": "1 33321U 08041B   25353.80759741  .00001059  00000+0  13557-3 0  9992", "line2": "2 33321  97.6394 345.4894 0038024  53.4452 307.0252 14.82838657931823"}}, "geometry": {"type": "Point", "coordinates": [-16.72088355894989, 16.93540297156257]}}, {"type": "Feature", "properties": {"norad_id": 33331, "name": "GEOEYE 1", "group": "resource", "lat": -73.28789097137211, "lon": -143.27495226392307, "alt_km": 683.3390858921111, "timestamp": "2025-12-19T22:41:52.035759+00:00", "meta": {"OBJECT_NAME": "GEOEYE 1", "OBJECT_ID": "2008-042A", "EPOCH": "2025-12-19T14:58:38.315712", "MEAN_MOTION": 14.64709001, "ECCENTRICITY": 0.0002798, "INCLINATION": 98.1245, "RA_OF_ASC_NODE": 64.818, "ARG_OF_PERICENTER": 254.893, "MEAN_ANOMALY": 105.1963, "EPHEMERIS_TYPE": 0, "CLASSIFICATION_TYPE": "U", "NORAD_CAT_ID": 33331, "ELEMENT_SET_NO": 999, "REV_AT_EPOCH": 92386, "BSTAR": 8.6091e-05, "MEAN_MOTION_DOT": 4.11e-06, "MEAN_MOTION_DDOT": 0}, "tle": {"line1": "1 33331U 08042A   25353.62405458  .00000411  00000+0  86091-4 0  9992", "line2": "2 33331  98.1245  64.8180 0002798 254.8930 105.1963 14.64709001923863"}}, "geometry": {"type": "Point", "coordinates": [-143.27495226392307, -73.28789097137211]}}, {"type": "Feature", "properties": {"norad_id": 33396, "name": "THEOS", "group": "resource", "lat": 35.267243319912076, "lon": 45.689640124665225, "alt_km": 822.1616533042215, "timestamp": "2025-12-19T22:41:52.035769+00:00", "meta": {"OBJECT_NAME": "THEOS", "OBJECT_ID": "2008-049A", "EPOCH": "2025-12-19T17:27:25.786656", "MEAN_MOTION": 14.20097794, "ECCENTRICITY": 0.0001173, "INCLINATION": 98.5863, "RA_OF_ASC_NODE": 51.6113, "ARG_OF_PERICENTER": 94.9354, "MEAN_ANOMALY": 265.1957, "EPHEMERIS_TYPE": 0, "CLASSIFICATION_TYPE": "U", "NORAD_CAT_ID": 33396, "ELEMENT_SET_NO": 999, "REV_AT_EPOCH": 89249, "BSTAR": 9.2102e-05, "MEAN_MOTION_DOT": 1.54e-06, "MEAN_MOTION_DDOT": 0}, "tle": {"line1": "1 33396U 08049A   25353.72738179  .00000154  00000+0  92102-4 0  9994", "line2": "2 33396  98.5863  51.6113 0001173  94.9354 265.1957 14.20097794892498"}}, "geometry": {"type": "Point", "coordinates": [45.689640124665225, 35.267243319912076]}}, {"type": "Feature", "properties": {"norad_id": 33412, "name": "COSMO-SKYMED 3", "group": "resource", "lat": 7.393448632022958, "lon": 25.484430660479056, "alt_km": 541.6147512006146, "timestamp": "2025-12-19T22:41:52.035780+00:00", "meta": {"OBJECT_NAME": "COSMO-SKYMED 3", "OBJECT_ID": "2008-054A", "EPOCH": "2025-12-19T18:44:40.774272", "MEAN_MOTION": 15.05419478, "ECCENTRICITY": 0.0016888, "INCLINATION": 97.8468, "RA_OF_ASC_NODE": 204.2916, "ARG_OF_PERICENTER": 148.3363, "MEAN_ANOMALY": 211.8883, "EPHEMERIS_TYPE": 0, "CLASSIFICATION_TYPE": "U", "NORAD_CAT_ID": 33412, "ELEMENT_SET_NO": 999, "REV_AT_EPOCH": 92993, "BSTAR": 0.00032757, "MEAN_MOTION_DOT": 4.65e-05, "MEAN_MOTION_DDOT": 0}, "tle": {"line1": "1 33412U 08054A   25353.78102748  .00004650  00000+0  32757-3 0  9996", "line2": "2 33412  97.8468 204.2916 0016888 148.3363 211.8883 15.05419478929937"}}, "geometry": {"type": "Point", "coordinates": [25.484430660479056, 7.393448632022958]}}, {"type": "Feature", "properties": {"norad_id": 33446, "name": "YAOGAN-4", "group": "resource", "lat": -72.52518700654008, "lon": -49.78495238905124, "alt_km": 619.1163055628676, "timestamp": "2025-12-19T22:41:52.035790+00:00", "meta": {"OBJECT_NAME": "YAOGAN-4", "OBJECT_ID": "2008-061A", "EPOCH": "2025-12-19T10:04:29.303904", "MEAN_MOTION": 14.8270055, "ECCENTRICITY": 0.0013167, "INCLINATION": 97.919, "RA_OF_ASC_NODE": 283.4536, "ARG_OF_PERICENTER": 299.8838, "MEAN_ANOMALY": 60.1067, "EPHEMERIS_TYPE": 0, "CLASSIFICATION_TYPE": "U", "NORAD_CAT_ID": 33446, "ELEMENT_SET_NO": 999, "REV_AT_EPOCH": 91902, "BSTAR": 0.00012167, "MEAN_MOTION_DOT": 9.29e-06, "MEAN_MOTION_DDOT": 0}, "tle": {"line1": "1 33446U 08061A   25353.41978361  .00000929  00000+0  12167-3 0  9991", "line2": "2 33446  97.9190 283.4536 0013167 299.8838  60.1067 14.82700550919026"}}, "geometry": {"type": "Point", "coordinates": [-49.78495238905124, -72.52518700654008]}}]}